NORAD_CAT_ID,OBJECT_NAME,OBJECT_TYPE,EPOCH,MEAN_MOTION,ECCENTRICITY,INCLINATION,RA_OF_ASC_NODE,ARG_OF_PERICENTER,MEAN_ANOMALY,BSTAR,MEAN_MOTION_DOT,MEAN_MOTION_DDOT,TLE_LINE0,TLE_LINE1,TLE_LINE2,SEMIMAJOR_AXIS,PERIOD,APOGEE,PERIGEE,DECAYED
52640.0,STARLINK-3977,PAYLOAD,2023-06-13 01:27:41,15.08836832,0.0001196,53.2174,71.1443,89.2289,270.8841,2.1723e-05,5.8e-07,0.0,0 STARLINK-3977,1 52640U 22052AU  23164.06089300  .00000058  00000-0  21723-4 0  9992,2 52640  53.2174  71.1443 0001196  89.2289 270.8841 15.08836832 60062,6917.89,95.438,540.582,538.928,0.0
52640.0,STARLINK-3977,PAYLOAD,2023-06-13 23:43:04,15.08841728,0.0001285,53.2179,66.9844,90.8355,269.2784,5.2306e-05,5.45e-06,0.0,0 STARLINK-3977,1 52640U 22052AU  23164.98825002  .00000545  00000-0  52306-4 0  9992,2 52640  53.2179  66.9844 0001285  90.8355 269.2784 15.08841728 60580,6917.875,95.437,540.629,538.851,0.0
52640.0,STARLINK-3977,PAYLOAD,2023-06-14 02:53:50,15.08845165,0.0001257,53.218,66.3868,104.1827,255.9305,3.702e-05,3.01e-06,0.0,0 STARLINK-3977,1 52640U 22052AU  23165.12072735  .00000301  00000-0  37020-4 0  9992,2 52640  53.2180  66.3868 0001257 104.1827 255.9305 15.08845165 60225,6917.865,95.437,540.599,538.86,0.0
52640.0,STARLINK-3977,PAYLOAD,2023-06-14 23:33:52,15.08826376,0.0001215,53.217,62.5209,94.6086,265.5045,0.00025441,3.762e-05,0.0,0 STARLINK-3977,1 52640U 22052AU  23165.98185468  .00003762  00000-0  25441-3 0  9991,2 52640  53.2170  62.5209 0001215  94.6086 265.5045 15.08826376 60732,6917.922,95.438,540.628,538.947,0.0
52640.0,STARLINK-3977,PAYLOAD,2023-06-15 17:03:06,15.08839984,0.0001278,53.2172,59.2479,101.2994,258.8141,-1.7195e-06,-3.15e-06,0.0,0 STARLINK-3977,1 52640U 22052AU  23166.71049231 -.00000315  00000-0 -17195-5 0  9992,2 52640  53.2172  59.2479 0001278 101.2994 258.8141 15.08839984 60841,6917.88,95.438,540.63,538.861,0.0
52640.0,STARLINK-3977,PAYLOAD,2023-06-15 23:24:38,15.08845306,0.0001261,53.2177,58.0619,92.1901,267.9236,3.8669e-05,3.28e-06,0.0,0 STARLINK-3977,1 52640U 22052AU  23166.97544779  .00000328  00000-0  38669-4 0  9997,2 52640  53.2177  58.0619 0001261  92.1901 267.9236 15.08845306 60882,6917.864,95.437,540.602,538.857,0.0
52640.0,STARLINK-3977,PAYLOAD,2023-06-16 16:53:53,15.08841049,0.0001241,53.2178,54.7909,91.5304,268.583,8.4589e-05,1.059e-05,0.0,0 STARLINK-3977,1 52640U 22052AU  23167.70408650  .00001059  00000-0  84589-4 0  9990,2 52640  53.2178  54.7909 0001241  91.5304 268.5830 15.08841049 60614,6917.877,95.437,540.601,538.884,0.0
52640.0,STARLINK-3977,PAYLOAD,2023-06-17 02:26:11,15.08848862,0.0001304,53.2175,53.0099,85.4747,274.6394,0.00012509,1.704e-05,0.0,0 STARLINK-3977,1 52640U 22052AU  23168.10151970  .00001704  00000-0  12509-3 0  9994,2 52640  53.2175  53.0099 0001304  85.4747 274.6394 15.08848862 61058,6917.853,95.437,540.62,538.816,0.0
52640.0,STARLINK-3977,PAYLOAD,2023-06-17 08:47:45,15.08828194,0.0001995,53.2169,51.8151,78.4608,281.6608,-2.201e-05,-6.38e-06,0.0,0 STARLINK-3977,1 52640U 22052AU  23168.36650026 -.00000638  00000-0 -22010-4 0  9994,2 52640  53.2169  51.8151 0001995  78.4608 281.6608 15.08828194 61096,6917.916,95.438,541.162,538.401,0.0
52640.0,STARLINK-3977,PAYLOAD,2023-06-18 08:38:32,15.08833267,0.0001178,53.2172,47.3577,94.1122,266.0005,-1.451e-05,-5.19e-06,0.0,0 STARLINK-3977,1 52640U 22052AU  23169.36010046 -.00000519  00000-0 -14510-4 0  9991,2 52640  53.2172  47.3577 0001178  94.1122 266.0005 15.08833267 60860,6917.901,95.438,540.581,538.951,0.0
52640.0,STARLINK-3977,PAYLOAD,2023-06-19 00:32:23,15.08844063,0.0001179,53.217,44.3829,84.7767,275.336,3.1651e-05,2.16e-06,0.0,0 STARLINK-3977,1 52640U 22052AU  23170.02249377  .00000216  00000-0  31651-4 0  9994,2 52640  53.2170  44.3829 0001179  84.7767 275.3360 15.08844063 61343,6917.868,95.437,540.549,538.917,0.0
52640.0,STARLINK-3977,PAYLOAD,2023-06-19 08:29:18,15.08847573,0.0001148,53.2175,42.8964,86.5287,273.5837,1.8534e-05,7e-08,0.0,0 STARLINK-3977,1 52640U 22052AU  23170.35369155  .00000007  00000-0  18534-4 0  9990,2 52640  53.2175  42.8964 0001148  86.5287 273.5837 15.08847573 61016,6917.857,95.437,540.516,538.928,0.0
52640.0,STARLINK-3977,PAYLOAD,2023-06-20 00:23:11,15.08836059,0.000109,53.2178,39.9222,87.9075,272.2042,0.00012807,1.751e-05,0.0,0 STARLINK-3977,1 52640U 22052AU  23171.01609999  .00001751  00000-0  12807-3 0  9990,2 52640  53.2178  39.9222 0001090  87.9075 272.2042 15.08836059 61492,6917.892,95.438,540.511,539.003,0.0
52640.0,STARLINK-3977,PAYLOAD,2023-06-20 08:20:06,15.08836856,0.0001079,53.2176,38.4357,93.0501,267.0614,0.00011094,1.478e-05,0.0,0 STARLINK-3977,1 52640U 22052AU  23171.34730077  .00001478  00000-0  11094-3 0  9991,2 52640  53.2176  38.4357 0001079  93.0501 267.0614 15.08836856 61168,6917.89,95.438,540.501,539.009,0.0
52640.0,STARLINK-3977,PAYLOAD,2023-06-20 21:03:11,15.0884748,0.0001107,53.2177,36.0544,93.4697,266.6422,4.6235e-05,4.48e-06,0.0,0 STARLINK-3977,1 52640U 22052AU  23171.87721596  .00000448  00000-0  46235-4 0  9997,2 52640  53.2177  36.0544 0001107  93.4697 266.6422 15.08847480 61249,6917.858,95.437,540.488,538.957,0.0
52640.0,STARLINK-3977,PAYLOAD,2023-06-21 00:13:57,15.08849946,0.0001098,53.2171,35.4595,93.8765,266.2352,6.3148e-05,7.18e-06,0.0,0 STARLINK-3977,1 52640U 22052AU  23172.00969317  .00000718  00000-0  63148-4 0  9990,2 52640  53.2171  35.4595 0001098  93.8765 266.2352 15.08849946 61642,6917.85,95.437,540.475,538.955,0.0
52640.0,STARLINK-3977,PAYLOAD,2023-06-21 20:53:58,15.08838575,0.0001121,53.217,31.5962,91.1377,268.9744,5.2985e-05,5.56e-06,0.0,0 STARLINK-3977,1 52640U 22052AU  23172.87081998  .00000556  00000-0  52985-4 0  9992,2 52640  53.2170  31.5962 0001121  91.1377 268.9744 15.08838575 61395,6917.885,95.438,540.525,538.974,0.0
52640.0,STARLINK-3977,PAYLOAD,2023-06-22 00:04:44,15.08846664,0.0001161,53.2173,31.0008,88.9366,271.1759,6.847e-05,8.02e-06,0.0,0 STARLINK-3977,1 52640U 22052AU  23173.00329408  .00000802  00000-0  68470-4 0  9999,2 52640  53.2173  31.0008 0001161  88.9366 271.1759 15.08846664 61794,6917.86,95.437,540.528,538.922,0.0
52640.0,STARLINK-3977,PAYLOAD,2023-06-22 08:01:40,15.08842268,8.49e-05,53.2164,29.5155,90.6729,269.436,1.3484e-05,-7.3e-07,0.0,0 STARLINK-3977,1 52640U 22052AU  23173.33449931 -.00000073  00000-0  13484-4 0  9995,2 52640  53.2164  29.5155 0000849  90.6729 269.4360 15.08842268 61844,6917.873,95.437,540.326,539.151,0.0
52640.0,STARLINK-3977,PAYLOAD,2023-06-23 19:00:09,15.08842714,0.0001142,53.2183,22.97,106.5248,253.5869,7.5702e-05,9.17e-06,0.0,0 STARLINK-3977,1 52640U 22052AU  23174.79177705  .00000917  00000-0  75702-4 0  9990,2 52640  53.2183  22.9700 0001142 106.5248 253.5869 15.08842714 62067,6917.872,95.437,540.527,538.947,0.0
52640.0,STARLINK-3977,PAYLOAD,2023-06-24 01:21:41,15.08850899,0.0001116,53.2184,21.7808,99.5728,260.5391,0.0001373,1.899e-05,0.0,0 STARLINK-3977,1 52640U 22052AU  23175.05673065  .00001899  00000-0  13730-3 0  9992,2 52640  53.2184  21.7808 0001116  99.5728 260.5391 15.08850899 62105,6917.847,95.437,540.484,538.94,0.0
52640.0,STARLINK-3977,PAYLOAD,2023-06-24 15:40:10,15.08835776,0.0001125,53.2182,19.1054,98.1867,261.9253,6.3382e-05,7.21e-06,0.0,0 STARLINK-3977,1 52640U 22052AU  23175.65290318  .00000721  00000-0  63382-4 0  9996,2 52640  53.2182  19.1054 0001125  98.1867 261.9253 15.08835776 62194,6917.893,95.438,540.537,538.98,0.0
52640.0,STARLINK-3977,PAYLOAD,2023-06-25 01:12:28,15.08851151,0.0001173,53.2174,17.3236,89.4648,270.6478,0.00018864,2.717e-05,0.0,0 STARLINK-3977,1 52640U 22052AU  23176.05033380  .00002717  00000-0  18864-3 0  9996,2 52640  53.2174  17.3236 0001173  89.4648 270.6478 15.08851151 62258,6917.846,95.437,540.523,538.9,0.0
52640.0,STARLINK-3977,PAYLOAD,2023-06-25 05:58:39,15.08828215,0.0001814,53.2175,16.4283,84.8523,275.2676,-0.00012722,-2.312e-05,0.0,0 STARLINK-3977,1 52640U 22052AU  23176.24906756 -.00002312  00000-0 -12722-3 0  9993,2 52640  53.2175  16.4283 0001814  84.8523 275.2676 15.08828215 62283,6917.916,95.438,541.036,538.527,0.0
52640.0,STARLINK-3977,PAYLOAD,2023-06-25 17:06:20,15.08837307,0.0001016,53.2173,14.3487,94.7772,265.3336,-5.8425e-05,-1.217e-05,0.0,0 STARLINK-3977,1 52640U 22052AU  23176.71274166 -.00001217  00000-0 -58425-4 0  9992,2 52640  53.2173  14.3487 0001016  94.7772 265.3336 15.08837307 62357,6917.889,95.438,540.456,539.051,0.0
52640.0,STARLINK-3977,PAYLOAD,2023-06-26 01:03:16,15.08850062,0.0001099,53.2172,12.862,104.8729,255.2385,0.00025405,3.759e-05,0.0,0 STARLINK-3977,1 52640U 22052AU  23177.04393679  .00003759  00000-0  25405-3 0  9992,2 52640  53.2172  12.8620 0001099 104.8729 255.2385 15.08850062 62405,6917.85,95.437,540.475,538.954,0.0
52640.0,STARLINK-3977,PAYLOAD,2023-06-26 05:49:25,15.08833563,6.34e-05,53.2174,11.9737,157.6412,202.4608,2.7624e-05,1.52e-06,0.0,0 STARLINK-3977,1 52640U 22052AU  23177.24265987  .00000152  00000-0  27624-4 0  9994,2 52640  53.2174  11.9737 0000634 157.6412 202.4608 15.08833563 62437,6917.9,95.438,540.204,539.326,0.0
52640.0,STARLINK-3977,PAYLOAD,2023-06-27 19:58:41,15.08851638,9.51e-05,53.2168,4.8339,90.0805,270.0296,0.00064103,9.932e-05,0.0,0 STARLINK-3977,1 52640U 22052AU  23178.83242501  .00009932  00000-0  64103-3 0  9994,2 52640  53.2168   4.8339 0000951  90.0805 270.0296 15.08851638 62670,6917.845,95.437,540.368,539.052,0.0
52640.0,STARLINK-3977,PAYLOAD,2023-06-28 05:31:00,15.08838507,0.0001276,53.2166,3.0499,76.1041,284.0093,6.8692e-05,8.05e-06,0.0,0 STARLINK-3977,1 52640U 22052AU  23179.22986782  .00000805  00000-0  68692-4 0  9992,2 52640  53.2166   3.0499 0001276  76.1041 284.0093 15.08838507 62731,6917.885,95.438,540.633,538.867,0.0
52640.0,STARLINK-3977,PAYLOAD,2023-06-29 18:04:52,15.08846053,0.0001142,53.2171,356.2114,71.1219,288.9896,0.00040624,6.184e-05,0.0,0 STARLINK-3977,1 52640U 22052AU  23180.75338879  .00006184  00000-0  40624-3 0  9990,2 52640  53.2171 356.2114 0001142  71.1219 288.9896 15.08846053 62962,6917.862,95.437,540.517,538.937,0.0
